NORAD_CAT_ID,OBJECT_NAME,OBJECT_TYPE,EPOCH,MEAN_MOTION,ECCENTRICITY,INCLINATION,RA_OF_ASC_NODE,ARG_OF_PERICENTER,MEAN_ANOMALY,BSTAR,MEAN_MOTION_DOT,MEAN_MOTION_DDOT,TLE_LINE0,TLE_LINE1,TLE_LINE2,SEMIMAJOR_AXIS,PERIOD,APOGEE,PERIGEE,DECAYED
53966.0,STARLINK-4635,PAYLOAD,2024-07-28 02:29:46,15.08832489,0.0001239,53.2192,350.9543,80.0149,280.0982,2.9106e-06,-2.42e-06,0.0,0 STARLINK-4635,1 53966U 22125C   24210.10400922 -.00000242  00000-0  29106-5 0  9990,2 53966  53.2192 350.9543 0001239  80.0149 280.0982 15.08832489100388,6917.903,95.438,540.625,538.911,0.0
53966.0,STARLINK-4635,PAYLOAD,2024-07-28 18:23:35,15.08859575,0.0001288,53.219,347.98,89.9337,270.1803,0.00012443,1.694e-05,0.0,0 STARLINK-4635,1 53966U 22125C   24210.76638841  .00001694  00000-0  12443-3 0  9990,2 53966  53.2190 347.9800 0001288  89.9337 270.1803 15.08859575100487,6917.821,95.436,540.577,538.795,0.0
53966.0,STARLINK-4635,PAYLOAD,2024-07-29 02:20:31,15.08859956,0.000104,53.2182,346.4909,79.5149,280.596,-0.00016599,-2.93e-05,0.0,0 STARLINK-4635,1 53966U 22125C   24211.09759006 -.00002930  00000-0 -16599-3 0  9996,2 53966  53.2182 346.4909 0001040  79.5149 280.5960 15.08859956100532,6917.819,95.436,540.404,538.965,0.0
53966.0,STARLINK-4635,PAYLOAD,2024-07-29 18:14:23,15.08843755,6.93e-05,53.2159,343.5161,62.6364,297.4698,0.00026295,3.9e-05,0.0,0 STARLINK-4635,1 53966U 22125C   24211.75999880  .00003900  00000-0  26295-3 0  9995,2 53966  53.2159 343.5161 0000693  62.6364 297.4698 15.08843755100635,6917.869,95.437,540.213,539.255,0.0
53966.0,STARLINK-4635,PAYLOAD,2024-07-30 02:11:19,15.08838977,0.0001038,53.2157,342.0311,69.7924,290.318,8.7346e-05,1.103e-05,0.0,0 STARLINK-4635,1 53966U 22125C   24212.09120270  .00001103  00000-0  87346-4 0  9990,2 53966  53.2157 342.0311 0001038  69.7924 290.3180 15.08838977100681,6917.884,95.438,540.467,539.03,0.0
53966.0,STARLINK-4635,PAYLOAD,2024-07-30 14:54:24,15.08841459,0.0001059,53.2173,339.6512,78.5451,281.566,2.3768e-05,9.1e-07,0.0,0 STARLINK-4635,1 53966U 22125C   24212.62112234  .00000091  00000-0  23768-4 0  9993,2 53966  53.2173 339.6512 0001059  78.5451 281.5660 15.08841459100695,6917.876,95.437,540.474,539.008,0.0
53966.0,STARLINK-4635,PAYLOAD,2024-07-30 18:05:10,15.08847439,0.0001177,53.2166,339.0572,82.9916,277.121,1.2672e-05,-8.6e-07,0.0,0 STARLINK-4635,1 53966U 22125C   24212.75359928 -.00000086  00000-0  12672-4 0  9997,2 53966  53.2166 339.0572 0001177  82.9916 277.1210 15.08847439100712,6917.858,95.437,540.537,538.908,0.0
53966.0,STARLINK-4635,PAYLOAD,2024-07-31 13:09:48,15.08840331,8.5e-05,53.2189,335.4876,85.4282,274.6807,0.00019615,2.835e-05,0.0,0 STARLINK-4635,1 53966U 22125C   24213.54848266  .00002835  00000-0  19615-3 0  9999,2 53966  53.2189 335.4876 0000850  85.4282 274.6807 15.08840331100904,6917.879,95.438,540.332,539.156,0.0
53966.0,STARLINK-4635,PAYLOAD,2024-07-31 14:45:11,15.08845507,0.0001119,53.2176,335.1905,93.8193,266.2927,0.00016049,2.268e-05,0.0,0 STARLINK-4635,1 53966U 22125C   24213.61472029  .00002268  00000-0  16049-3 0  9995,2 53966  53.2176 335.1905 0001119  93.8193 266.2927 15.08845507100846,6917.864,95.437,540.503,538.954,0.0
53966.0,STARLINK-4635,PAYLOAD,2024-07-31 17:55:57,15.08851903,0.0001153,53.2187,334.5945,102.5718,257.5403,0.00014833,2.074e-05,0.0,0 STARLINK-4635,1 53966U 22125C   24213.74719651  .00002074  00000-0  14833-3 0  9998,2 53966  53.2187 334.5945 0001153 102.5718 257.5403 15.08851903100933,6917.844,95.437,540.507,538.911,0.0
53966.0,STARLINK-4635,PAYLOAD,2024-08-01 11:25:11,15.08858505,0.0001161,53.2186,331.3241,98.5479,261.5645,0.00038114,5.786e-05,0.0,0 STARLINK-4635,1 53966U 22125C   24214.47583014  .00005786  00000-0  38114-3 0  9992,2 53966  53.2186 331.3241 0001161  98.5479 261.5645 15.08858505100975,6917.824,95.436,540.492,538.886,0.0
53966.0,STARLINK-4635,PAYLOAD,2024-08-02 12:51:24,15.08810258,0.0001636,53.2184,326.5663,109.2488,250.8681,-0.00028365,-4.796e-05,0.0,0 STARLINK-4635,1 53966U 22125C   24215.53570431 -.00004796  00000-0 -28365-3 0  9998,2 53966  53.2184 326.5663 0001636 109.2488 250.8681 15.08810258101205,6917.971,95.439,540.968,538.705,0.0
53966.0,STARLINK-4635,PAYLOAD,2024-08-02 14:26:47,15.08824369,0.0001211,53.2176,326.2715,86.2134,273.8997,-5.6102e-05,-1.18e-05,0.0,0 STARLINK-4635,1 53966U 22125C   24215.60194052 -.00001180  00000-0 -56102-4 0  9992,2 53966  53.2176 326.2715 0001211  86.2134 273.8997 15.08824369101148,6917.928,95.439,540.631,538.955,0.0
53966.0,STARLINK-4635,PAYLOAD,2024-08-02 23:59:05,15.08842945,0.0001196,53.2175,324.4858,83.0469,277.0659,0.00014007,1.942e-05,0.0,0 STARLINK-4635,1 53966U 22125C   24215.99936926  .00001942  00000-0  14007-3 0  9999,2 53966  53.2175 324.4858 0001196  83.0469 277.0659 15.08842945101278,6917.871,95.437,540.564,538.909,0.0
53966.0,STARLINK-4635,PAYLOAD,2024-08-03 14:17:34,15.08858118,0.0001337,53.2183,321.8138,80.3056,279.8087,0.00094908,0.00014856,0.0,0 STARLINK-4635,1 53966U 22125C   24216.59553413  .00014856  00000-0  94908-3 0  9998,2 53966  53.2183 321.8138 0001337  80.3056 279.8087 15.08858118101294,6917.825,95.436,540.615,538.765,0.0
53966.0,STARLINK-4635,PAYLOAD,2024-08-04 12:32:57,15.0885179,0.0001407,53.2171,317.6487,91.8756,268.2397,0.00023015,3.378e-05,0.0,0 STARLINK-4635,1 53966U 22125C   24217.52289306  .00003378  00000-0  23015-3 0  9997,2 53966  53.2171 317.6487 0001407  91.8756 268.2397 15.08851790101502,6917.844,95.437,540.683,538.736,0.0
53966.0,STARLINK-4635,PAYLOAD,2024-08-04 14:08:20,15.08856564,0.0001411,53.2174,317.3511,83.0575,277.0578,0.0003286,4.948e-05,0.0,0 STARLINK-4635,1 53966U 22125C   24217.58913164  .00004948  00000-0  32860-3 0  9991,2 53966  53.2174 317.3511 0001411  83.0575 277.0578 15.08856564101443,6917.83,95.437,540.671,538.719,0.0
53966.0,STARLINK-4635,PAYLOAD,2024-08-04 15:43:43,15.08863361,0.0001435,53.2174,317.0539,104.7565,255.3587,0.00047622,7.304e-05,0.0,0 STARLINK-4635,1 53966U 22125C   24217.65536771  .00007304  00000-0  47622-3 0  9995,2 53966  53.2174 317.0539 0001435 104.7565 255.3587 15.08863361101527,6917.809,95.436,540.667,538.681,0.0
53966.0,STARLINK-4635,PAYLOAD,2024-08-05 12:23:43,15.08864156,0.0001566,53.2166,313.1875,98.6774,261.4395,0.00058172,8.988e-05,0.0,0 STARLINK-4635,1 53966U 22125C   24218.51647890  .00008988  00000-0  58172-3 0  9997,2 53966  53.2166 313.1875 0001566  98.6774 261.4395 15.08864156101658,6917.807,95.436,540.755,538.588,0.0
53966.0,STARLINK-4635,PAYLOAD,2024-08-05 13:59:06,15.08868752,0.0001486,53.2164,312.8914,85.008,275.1082,0.00076054,0.00011846,0.0,0 STARLINK-4635,1 53966U 22125C   24218.58271748  .00011846  00000-0  76054-3 0  9995,2 53966  53.2164 312.8914 0001486  85.0080 275.1082 15.08868752101591,6917.793,95.436,540.685,538.63,0.0
53966.0,STARLINK-4635,PAYLOAD,2024-08-05 23:31:25,15.08849222,0.0001428,53.2159,311.1067,101.937,258.1783,-0.00012642,-2.3e-05,0.0,0 STARLINK-4635,1 53966U 22125C   24218.98015714 -.00002300  00000-0 -12642-3 0  9998,2 53966  53.2159 311.1067 0001428 101.9370 258.1783 15.08849222101727,6917.852,95.437,540.705,538.729,0.0
53966.0,STARLINK-4635,PAYLOAD,2024-08-06 12:14:31,15.0881995,0.0001428,53.2151,308.7243,119.2584,240.8551,-0.00057669,-9.449e-05,0.0,0 STARLINK-4635,1 53966U 22125C   24219.51008571 -.00009449  00000-0 -57669-3 0  9990,2 53966  53.2151 308.7243 0001428 119.2584 240.8551 15.08819950101801,6917.942,95.439,540.795,538.819,0.0
53966.0,STARLINK-4635,PAYLOAD,2024-08-06 13:49:54,15.08822751,0.0001486,53.2156,308.4275,116.7011,243.4134,-0.00027661,-4.685e-05,0.0,0 STARLINK-4635,1 53966U 22125C   24219.57632677 -.00004685  00000-0 -27661-3 0  9992,2 53966  53.2156 308.4275 0001486 116.7011 243.4134 15.08822751101741,6917.933,95.439,540.826,538.77,0.0
53966.0,STARLINK-4635,PAYLOAD,2024-08-06 15:25:17,15.08825432,0.0001495,53.2156,308.1303,117.6921,242.4223,7.1567e-05,8.51e-06,0.0,0 STARLINK-4635,1 53966U 22125C   24219.64256772  .00000851  00000-0  71567-4 0  9992,2 53966  53.2156 308.1303 0001495 117.6921 242.4223 15.08825432101758,6917.925,95.438,540.824,538.756,0.0
53966.0,STARLINK-4635,PAYLOAD,2024-08-07 12:05:19,15.08860499,0.0001429,53.2154,304.2684,102.7654,257.3498,0.0016996,0.0002688,0.0,0 STARLINK-4635,1 53966U 22125C   24220.50369213  .00026880  00000-0  16996-2 0  9997,2 53966  53.2154 304.2684 0001429 102.7654 257.3498 15.08860499101953,6917.818,95.436,540.671,538.694,0.0
53966.0,STARLINK-4635,PAYLOAD,2024-08-08 11:56:05,15.0886443,0.0001537,53.2153,299.8072,99.1604,260.9562,0.0013252,0.0002088,0.0,0 STARLINK-4635,1 53966U 22125C   24221.49728733  .00020880  00000-0  13252-2 0  9998,2 53966  53.2153 299.8072 0001537  99.1604 260.9562 15.08864430102037,6917.806,95.436,540.734,538.607,0.0
53966.0,STARLINK-4635,PAYLOAD,2024-08-09 11:46:52,15.0884751,0.0001802,53.2163,295.35,80.1554,279.9642,0.0003189,4.792e-05,0.0,0 STARLINK-4635,1 53966U 22125C   24222.49088784  .00004792  00000-0  31890-3 0  9997,2 53966  53.2163 295.3500 0001802  80.1554 279.9642 15.08847510102257,6917.857,95.437,540.969,538.476,0.0
53966.0,STARLINK-4635,PAYLOAD,2024-08-09 14:57:38,15.08853807,0.0001635,53.2158,294.7499,78.6535,281.4641,0.00036039,5.454e-05,0.0,0 STARLINK-4635,1 53966U 22125C   24222.62336448  .00005454  00000-0  36039-3 0  9991,2 53966  53.2158 294.7499 0001635  78.6535 281.4641 15.08853807102204,6917.838,95.437,540.834,538.572,0.0
53966.0,STARLINK-4635,PAYLOAD,2024-08-10 11:37:39,15.08848732,0.0002029,53.2169,290.8829,88.731,271.3915,0.00033307,5.018e-05,0.0,0 STARLINK-4635,1 53966U 22125C   24223.48448691  .00005018  00000-0  33307-3 0  9991,2 53966  53.2169 290.8829 0002029  88.7310 271.3915 15.08848732102406,6917.854,95.437,541.122,538.315,0.0
53966.0,STARLINK-4635,PAYLOAD,2024-08-10 21:09:58,15.08837121,0.0001782,53.2156,289.1015,88.9783,271.1413,0.00013226,1.817e-05,0.0,0 STARLINK-4635,1 53966U 22125C   24223.88193044  .00001817  00000-0  13226-3 0  9995,2 53966  53.2156 289.1015 0001782  88.9783 271.1413 15.08837121102468,6917.889,95.438,540.987,538.521,0.0
